start=new Date('2022-09-01T00:00:00.000Z').valueOf();
sats=[{"MEAN_ELEMENT_THEORY":"SGP4","GP_ID":"211394135","RA_OF_ASC_NODE":"154.6633","FILE":"3552511","INCLINATION":"53.2168","LAUNCH_DATE":"2021-12-02","TLE_LINE2":"2 49769  53.2168 154.6633 0001902  76.9206 283.1998 15.08837122 41453","BSTAR":"-0.00003273700000","TLE_LINE1":"1 49769U 21115AX  22243.14296499 -.00000809  00000-0 -32737-4 0  9997","RCS_SIZE":"LARGE","EPHEMERIS_TYPE":"0","EPOCH":"2022-08-31T03:25:52.175136","REF_FRAME":"TEME","MEAN_MOTION_DDOT":"0.0000000000000","NORAD_CAT_ID":"49769","CENTER_NAME":"EARTH","MEAN_MOTION":"15.08837122","ELEMENT_SET_NO":"999","ECCENTRICITY":"0.00019020","REV_AT_EPOCH":"4145","MEAN_ANOMALY":"283.1998","CLASSIFICATION_TYPE":"U","SITE":"AFETR","COUNTRY_CODE":"US","MEAN_MOTION_DOT":"-0.00000809","TIME_SYSTEM":"UTC","OBJECT_NAME":"STARLINK-3208","PERIAPSIS":"538.438","DECAY_DATE":null,"SEMIMAJOR_AXIS":"6917.889","APOAPSIS":"541.070","PERIOD":"95.438","OBJECT_TYPE":"PAYLOAD","ARG_OF_PERICENTER":"76.9206","OBJECT_ID":"2021-115AX"},{"ECCENTRICITY":"0.00022540","REV_AT_EPOCH":"4266","ELEMENT_SET_NO":"999","MEAN_ANOMALY":"296.8414","SITE":"AFETR","CLASSIFICATION_TYPE":"U","MEAN_MOTION_DOT":"0.00000501","COUNTRY_CODE":"US","TIME_SYSTEM":"UTC","DECAY_DATE":null,"OBJECT_NAME":"STARLINK-3191","PERIAPSIS":"538.220","SEMIMAJOR_AXIS":"6917.915","APOAPSIS":"541.339","OBJECT_TYPE":"PAYLOAD","PERIOD":"95.438","OBJECT_ID":"2021-115AY","ARG_OF_PERICENTER":"63.2809","MEAN_ELEMENT_THEORY":"SGP4","GP_ID":"211425106","RA_OF_ASC_NODE":"151.9561","FILE":"3552761","LAUNCH_DATE":"2021-12-02","INCLINATION":"53.2165","TLE_LINE2":"2 49770  53.2165 151.9561 0002254  63.2809 296.8414 15.08828760 42667","BSTAR":"0.00004958700000","RCS_SIZE":"LARGE","EPOCH":"2022-08-31T17:54:56.613312","EPHEMERIS_TYPE":"0","TLE_LINE1":"1 49770U 21115AY  22243.74648858  .00000501  00000-0  49587-4 0  9993","MEAN_MOTION_DDOT":"0.0000000000000","REF_FRAME":"TEME","NORAD_CAT_ID":"49770","CENTER_NAME":"EARTH","MEAN_MOTION":"15.08828760"},{"FILE":"3552761","RA_OF_ASC_NODE":"151.3344","MEAN_ELEMENT_THEORY":"SGP4","GP_ID":"211425858","NORAD_CAT_ID":"49771","CENTER_NAME":"EARTH","MEAN_MOTION":"15.08845042","RCS_SIZE":"LARGE","EPHEMERIS_TYPE":"0","EPOCH":"2022-08-31T21:11:01.033440","TLE_LINE1":"1 49771U 21115AZ  22243.88265085  .00000474  00000-0  47870-4 0  9998","REF_FRAME":"TEME","MEAN_MOTION_DDOT":"0.0000000000000","BSTAR":"0.00004787000000","INCLINATION":"53.2155","LAUNCH_DATE":"2021-12-02","TLE_LINE2":"2 49771  53.2155 151.3344 0002077  64.5739 295.5468 15.08845042 41564","TIME_SYSTEM":"UTC","DECAY_DATE":null,"PERIAPSIS":"538.293","OBJECT_NAME":"STARLINK-3201","MEAN_MOTION_DOT":"0.00000474","COUNTRY_CODE":"US","SITE":"AFETR","CLASSIFICATION_TYPE":"U","ELEMENT_SET_NO":"999","REV_AT_EPOCH":"4156","ECCENTRICITY":"0.00020770","MEAN_ANOMALY":"295.5468","OBJECT_ID":"2021-115AZ","ARG_OF_PERICENTER":"64.5739","PERIOD":"95.437","OBJECT_TYPE":"PAYLOAD","APOAPSIS":"541.167","SEMIMAJOR_AXIS":"6917.865"},{"SITE":"AFWTR","CLASSIFICATION_TYPE":"U","MEAN_ANOMALY":"290.4025","ELEMENT_SET_NO":"999","REV_AT_EPOCH":"4246","ECCENTRICITY":"0.00014450","PERIAPSIS":"538.788","OBJECT_NAME":"STARLINK-3317","DECAY_DATE":null,"TIME_SYSTEM":"UTC","COUNTRY_CODE":"US","MEAN_MOTION_DOT":"0.00000390","APOAPSIS":"540.788","SEMIMAJOR_AXIS":"6917.923","OBJECT_ID":"2021-125A","ARG_OF_PERICENTER":"69.7123","OBJECT_TYPE":"PAYLOAD","PERIOD":"95.438","GP_ID":"211394156","MEAN_ELEMENT_THEORY":"SGP4","FILE":"3552511","RA_OF_ASC_NODE":"263.0496","BSTAR":"0.00004258500000","TLE_LINE2":"2 50156  53.2176 263.0496 0001445  69.7123 290.4025 15.08826054 42462","LAUNCH_DATE":"2021-12-18","INCLINATION":"53.2176","MEAN_MOTION":"15.08826054","NORAD_CAT_ID":"50156","CENTER_NAME":"EARTH","MEAN_MOTION_DDOT":"0.0000000000000","REF_FRAME":"TEME","TLE_LINE1":"1 50156U 21125A   22243.50180684  .00000390  00000-0  42585-4 0  9993","EPOCH":"2022-08-31T12:02:36.110976","RCS_SIZE":"LARGE","EPHEMERIS_TYPE":"0"},{"BSTAR":"-0.00002834300000","TLE_LINE2":"2 50157  53.2151 273.2304 0001639  54.4310 305.6835 15.08823112 42326","LAUNCH_DATE":"2021-12-18","INCLINATION":"53.2151","MEAN_MOTION":"15.08823112","CENTER_NAME":"EARTH","NORAD_CAT_ID":"50157","REF_FRAME":"TEME","MEAN_MOTION_DDOT":"0.0000000000000","TLE_LINE1":"1 50157U 21125B   22243.45945295 -.00000739  00000-0 -28343-4 0  9990","RCS_SIZE":"LARGE","EPHEMERIS_TYPE":"0","EPOCH":"2022-08-31T11:01:36.734880","GP_ID":"211393906","MEAN_ELEMENT_THEORY":"SGP4","FILE":"3552511","RA_OF_ASC_NODE":"273.2304","APOAPSIS":"540.931","SEMIMAJOR_AXIS":"6917.932","OBJECT_ID":"2021-125B","ARG_OF_PERICENTER":"54.4310","PERIOD":"95.439","OBJECT_TYPE":"PAYLOAD","SITE":"AFWTR","CLASSIFICATION_TYPE":"U","MEAN_ANOMALY":"305.6835","ELEMENT_SET_NO":"999","ECCENTRICITY":"0.00016390","REV_AT_EPOCH":"4232","OBJECT_NAME":"STARLINK-3313","PERIAPSIS":"538.663","DECAY_DATE":null,"TIME_SYSTEM":"UTC","COUNTRY_CODE":"US","MEAN_MOTION_DOT":"-0.00000739"},{"RA_OF_ASC_NODE":"273.2953","FILE":"3552511","GP_ID":"211395158","MEAN_ELEMENT_THEORY":"SGP4","MEAN_MOTION_DDOT":"0.0000000000000","REF_FRAME":"TEME","RCS_SIZE":"LARGE","EPOCH":"2022-08-31T10:45:41.901696","EPHEMERIS_TYPE":"0","TLE_LINE1":"1 50158U 21125C   22243.44840164  .00000633  00000-0  57864-4 0  9990","MEAN_MOTION":"15.08841185","NORAD_CAT_ID":"50158","CENTER_NAME":"EARTH","TLE_LINE2":"2 50158  53.2154 273.2953 0001881  51.1717 308.9443 15.08841185 42347","LAUNCH_DATE":"2021-12-18","INCLINATION":"53.2154","BSTAR":"0.00005786400000","MEAN_MOTION_DOT":"0.00000633","COUNTRY_CODE":"US","DECAY_DATE":null,"PERIAPSIS":"538.441","OBJECT_NAME":"STARLINK-3309","TIME_SYSTEM":"UTC","MEAN_ANOMALY":"308.9443","REV_AT_EPOCH":"4234","ECCENTRICITY":"0.00018810","ELEMENT_SET_NO":"999","CLASSIFICATION_TYPE":"U","SITE":"AFWTR","PERIOD":"95.437","OBJECT_TYPE":"PAYLOAD","ARG_OF_PERICENTER":"51.1717","OBJECT_ID":"2021-125C","SEMIMAJOR_AXIS":"6917.877","APOAPSIS":"541.043"},{"MEAN_MOTION_DOT":"-0.00000143","COUNTRY_CODE":"US","DECAY_DATE":null,"OBJECT_NAME":"STARLINK-3297","PERIAPSIS":"538.513","TIME_SYSTEM":"UTC","MEAN_ANOMALY":"309.0844","ELEMENT_SET_NO":"999","ECCENTRICITY":"0.00017990","REV_AT_EPOCH":"4227","SITE":"AFWTR","CLASSIFICATION_TYPE":"U","PERIOD":"95.438","OBJECT_TYPE":"PAYLOAD","ARG_OF_PERICENTER":"51.0308","OBJECT_ID":"2021-125D","SEMIMAJOR_AXIS":"6917.893","APOAPSIS":"541.002","RA_OF_ASC_NODE":"273.3021","FILE":"3552511","GP_ID":"211394908","MEAN_ELEMENT_THEORY":"SGP4","MEAN_MOTION_DDOT":"0.0000000000000","REF_FRAME":"TEME","EPHEMERIS_TYPE":"0","RCS_SIZE":"LARGE","EPOCH":"2022-08-31T10:40:24.303072","TLE_LINE1":"1 50159U 21125D   22243.44472573 -.00000143  00000-0  91095-5 0  9998","MEAN_MOTION":"15.08835914","CENTER_NAME":"EARTH","NORAD_CAT_ID":"50159","TLE_LINE2":"2 50159  53.2154 273.3021 0001799  51.0308 309.0844 15.08835914 42270","INCLINATION":"53.2154","LAUNCH_DATE":"2021-12-18","BSTAR":"0.00000910950000"},{"FILE":"3552511","RA_OF_ASC_NODE":"273.8746","MEAN_ELEMENT_THEORY":"SGP4","GP_ID":"211393656","CENTER_NAME":"EARTH","NORAD_CAT_ID":"50160","MEAN_MOTION":"15.08841872","EPHEMERIS_TYPE":"0","RCS_SIZE":"LARGE","EPOCH":"2022-08-31T07:40:13.836576","TLE_LINE1":"1 50160U 21125E   22243.31960459 -.00000426  00000-0 -86390-5 0  9998","MEAN_MOTION_DDOT":"0.0000000000000","REF_FRAME":"TEME","BSTAR":"-0.00000863900000","LAUNCH_DATE":"2021-12-18","INCLINATION":"53.2150","TLE_LINE2":"2 50160  53.2150 273.8746 0001787  45.7498 314.3640 15.08841872 42266","TIME_SYSTEM":"UTC","DECAY_DATE":null,"OBJECT_NAME":"STARLINK-3288","PERIAPSIS":"538.503","MEAN_MOTION_DOT":"-0.00000426","COUNTRY_CODE":"US","CLASSIFICATION_TYPE":"U","SITE":"AFWTR","ECCENTRICITY":"0.00017870","REV_AT_EPOCH":"4226","ELEMENT_SET_NO":"999","MEAN_ANOMALY":"314.3640","ARG_OF_PERICENTER":"45.7498","OBJECT_ID":"2021-125E","OBJECT_TYPE":"PAYLOAD","PERIOD":"95.437","APOAPSIS":"540.976","SEMIMAJOR_AXIS":"6917.875"},{"PERIAPSIS":"538.439","OBJECT_NAME":"STARLINK-3304","DECAY_DATE":null,"TIME_SYSTEM":"UTC","COUNTRY_CODE":"US","MEAN_MOTION_DOT":"-0.00001240","CLASSIFICATION_TYPE":"U","SITE":"AFWTR","MEAN_ANOMALY":"314.9386","ELEMENT_SET_NO":"999","ECCENTRICITY":"0.00018740","REV_AT_EPOCH":"4227","OBJECT_ID":"2021-125F","ARG_OF_PERICENTER":"45.1758","PERIOD":"95.437","OBJECT_TYPE":"PAYLOAD","APOAPSIS":"541.032","SEMIMAJOR_AXIS":"6917.870","FILE":"3552511","RA_OF_ASC_NODE":"273.2470","GP_ID":"211394407","MEAN_ELEMENT_THEORY":"SGP4","MEAN_MOTION":"15.08843260","CENTER_NAME":"EARTH","NORAD_CAT_ID":"50161","MEAN_MOTION_DDOT":"0.0000000000000","REF_FRAME":"TEME","TLE_LINE1":"1 50161U 21125F   22243.45576402 -.00001240  00000-0 -59796-4 0  9999","EPHEMERIS_TYPE":"0","RCS_SIZE":"LARGE","EPOCH":"2022-08-31T10:56:18.011328","BSTAR":"-0.00005979600000","TLE_LINE2":"2 50161  53.2146 273.2470 0001874  45.1758 314.9386 15.08843260 42277","LAUNCH_DATE":"2021-12-18","INCLINATION":"53.2146"},{"BSTAR":"0.00003177500000","TLE_LINE2":"2 50162  53.2005 165.5947 0001031  53.8153  83.3080 15.76701466  1307","INCLINATION":"53.2005","LAUNCH_DATE":"2021-12-18","MEAN_MOTION":"15.76701466","CENTER_NAME":"EARTH","NORAD_CAT_ID":"50162","MEAN_MOTION_DDOT":"0.0000000000000","REF_FRAME":"TEME","TLE_LINE1":"1 50162U 21125G   22243.91667824  .00004543  00000-0  31775-4 0  9994","RCS_SIZE":"LARGE","EPOCH":"2022-08-31T22:00:00.999936","EPHEMERIS_TYPE":"0","GP_ID":"211426379","MEAN_ELEMENT_THEORY":"SGP4","FILE":"3552761","RA_OF_ASC_NODE":"165.5947","APOAPSIS":"340.488","SEMIMAJOR_AXIS":"6717.931","ARG_OF_PERICENTER":"53.8153","OBJECT_ID":"2021-125G","PERIOD":"91.330","OBJECT_TYPE":"PAYLOAD","CLASSIFICATION_TYPE":"U","SITE":"AFWTR","MEAN_ANOMALY":"83.3080","ELEMENT_SET_NO":"999","ECCENTRICITY":"0.00010310","REV_AT_EPOCH":"130","OBJECT_NAME":"STARLINK-3303","PERIAPSIS":"339.103","DECAY_DATE":null,"TIME_SYSTEM":"UTC","COUNTRY_CODE":"US","MEAN_MOTION_DOT":"0.00004543"}];
